{
  "type": "FeatureCollection",
  "features": [
    {
      "type": "Feature",
      "properties": {
        "norad_id": 37530,
        "name": "COSMOS 2251 DEB",
        "group": "cosmos-2251-debris",
        "lat": 26.776314632367676,
        "lon": 152.22544023555747,
        "alt_km": 780.7980012757243,
        "timestamp": "2025-12-08T23:34:04.369585+00:00",
        "meta_object_name": "COSMOS 2251 DEB",
        "meta_object_id": "1993-036BNK",
        "meta_epoch": "2025-11-30T19:50:14.646624",
        "meta_mean_motion": 14.34478642,
        "meta_eccentricity": 0.00255427,
        "meta_inclination": 74.0356,
        "meta_ra_of_asc_node": 355.4602,
        "meta_arg_of_pericenter": 61.4891,
        "meta_mean_anomaly": 111.2815,
        "meta_ephemeris_type": 0,
        "meta_classification_type": "U",
        "meta_norad_cat_id": 37530,
        "meta_element_set_no": 999,
        "meta_rev_at_epoch": 85061,
        "meta_bstar": 0.00021143929,
        "meta_mean_motion_dot": 5.72e-06,
        "meta_mean_motion_ddot": 0,
        "tle_line1": "1 37530U 93036BNK 25334.82655841  .00000572  00000+0  21144-3 0  9993",
        "tle_line2": "2 37530  74.0356 355.4602 0025542  61.4891 111.2815 14.34478642850619"
      },
      "geometry": {
        "type": "Point",
        "coordinates": [
          152.22544023555747,
          26.776314632367676
        ]
      }
    },
    {
      "type": "Feature",
      "properties": {
        "norad_id": 37532,
        "name": "COSMOS 2251 DEB",
        "group": "cosmos-2251-debris",
        "lat": -4.9601073714264965,
        "lon": 44.107546703483536,
        "alt_km": 762.3010067528903,
        "timestamp": "2025-12-08T23:34:04.369596+00:00",
        "meta_object_name": "COSMOS 2251 DEB",
        "meta_object_id": "1993-036BNM",
        "meta_epoch": "2025-12-07T10:55:32.240064",
        "meta_mean_motion": 14.42395579,
        "meta_eccentricity": 0.00158251,
        "meta_inclination": 74.0509,
        "meta_ra_of_asc_node": 225.5137,
        "meta_arg_of_pericenter": 327.0165,
        "meta_mean_anomaly": 213.451,
        "meta_ephemeris_type": 0,
        "meta_classification_type": "U",
        "meta_norad_cat_id": 37532,
        "meta_element_set_no": 999,
        "meta_rev_at_epoch": 84839,
        "meta_bstar": 0.00041437252,
        "meta_mean_motion_dot": 1.346e-05,
        "meta_mean_motion_ddot": 0,
        "tle_line1": "1 37532U 93036BNM 25341.45523426  .00001346  00000+0  41437-3 0  9992",
        "tle_line2": "2 37532  74.0509 225.5137 0015825 327.0165 213.4510 14.42395579848394"
      },
      "geometry": {
        "type": "Point",
        "coordinates": [
          44.107546703483536,
          -4.9601073714264965
        ]
      }
    },
    {
      "type": "Feature",
      "properties": {
        "norad_id": 37533,
        "name": "COSMOS 2251 DEB",
        "group": "cosmos-2251-debris",
        "lat": -31.140099591003338,
        "lon": -171.50784313290666,
        "alt_km": 820.0832335116229,
        "timestamp": "2025-12-08T23:34:04.369606+00:00",
        "meta_object_name": "COSMOS 2251 DEB",
        "meta_object_id": "1993-036BNN",
        "meta_epoch": "2025-12-08T06:43:08.752224",
        "meta_mean_motion": 14.1213434,
        "meta_eccentricity": 0.0158188,
        "meta_inclination": 74.0696,
        "meta_ra_of_asc_node": 199.6661,
        "meta_arg_of_pericenter": 257.3146,
        "meta_mean_anomaly": 101.0271,
        "meta_ephemeris_type": 0,
        "meta_classification_type": "U",
        "meta_norad_cat_id": 37533,
        "meta_element_set_no": 999,
        "meta_rev_at_epoch": 62858,
        "meta_bstar": 0.0019209646,
        "meta_mean_motion_dot": 3.943e-05,
        "meta_mean_motion_ddot": 0,
        "tle_line1": "1 37533U 93036BNN 25342.27996241  .00003943  00000+0  19210-2 0  9991",
        "tle_line2": "2 37533  74.0696 199.6661 0158188 257.3146 101.0271 14.12134340628586"
      },
      "geometry": {
        "type": "Point",
        "coordinates": [
          -171.50784313290666,
          -31.140099591003338
        ]
      }
    },
    {
      "type": "Feature",
      "properties": {
        "norad_id": 37535,
        "name": "COSMOS 2251 DEB",
        "group": "cosmos-2251-debris",
        "lat": -16.921445858362503,
        "lon": 75.66103583490128,
        "alt_km": 713.5191038061621,
        "timestamp": "2025-12-08T23:34:04.369617+00:00",
        "meta_object_name": "COSMOS 2251 DEB",
        "meta_object_id": "1993-036BNQ",
        "meta_epoch": "2025-12-06T17:53:41.072064",
        "meta_mean_motion": 14.58386464,
        "meta_eccentricity": 0.00280664,
        "meta_inclination": 74.0246,
        "meta_ra_of_asc_node": 84.9186,
        "meta_arg_of_pericenter": 224.6272,
        "meta_mean_anomaly": 260.8539,
        "meta_ephemeris_type": 0,
        "meta_classification_type": "U",
        "meta_norad_cat_id": 37535,
        "meta_element_set_no": 999,
        "meta_rev_at_epoch": 85237,
        "meta_bstar": 0.0015242667,
        "meta_mean_motion_dot": 7.078e-05,
        "meta_mean_motion_ddot": 0,
        "tle_line1": "1 37535U 93036BNQ 25340.74561426  .00007078  00000+0  15243-2 0  9991",
        "tle_line2": "2 37535  74.0246  84.9186 0028066 224.6272 260.8539 14.58386464852378"
      },
      "geometry": {
        "type": "Point",
        "coordinates": [
          75.66103583490128,
          -16.921445858362503
        ]
      }
    },
    {
      "type": "Feature",
      "properties": {
        "norad_id": 37537,
        "name": "COSMOS 2251 DEB",
        "group": "cosmos-2251-debris",
        "lat": 72.72856525234099,
        "lon": 24.816834489109905,
        "alt_km": 733.3115175987641,
        "timestamp": "2025-12-08T23:34:04.369628+00:00",
        "meta_object_name": "COSMOS 2251 DEB",
        "meta_object_id": "1993-036BNS",
        "meta_epoch": "2025-12-04T13:53:52.711584",
        "meta_mean_motion": 14.3747249,
        "meta_eccentricity": 0.0050092,
        "meta_inclination": 74.012,
        "meta_ra_of_asc_node": 280.1661,
        "meta_arg_of_pericenter": 62.5345,
        "meta_mean_anomaly": 298.0888,
        "meta_ephemeris_type": 0,
        "meta_classification_type": "U",
        "meta_norad_cat_id": 37537,
        "meta_element_set_no": 999,
        "meta_rev_at_epoch": 84916,
        "meta_bstar": 0.00043114,
        "meta_mean_motion_dot": 1.283e-05,
        "meta_mean_motion_ddot": 0,
        "tle_line1": "1 37537U 93036BNS 25338.57908231  .00001283  00000+0  43114-3 0  9991",
        "tle_line2": "2 37537  74.0120 280.1661 0050092  62.5345 298.0888 14.37472490849168"
      },
      "geometry": {
        "type": "Point",
        "coordinates": [
          24.816834489109905,
          72.72856525234099
        ]
      }
    },
    {
      "type": "Feature",
      "properties": {
        "norad_id": 37546,
        "name": "COSMOS 2251 DEB",
        "group": "cosmos-2251-debris",
        "lat": -43.17047181420325,
        "lon": 89.82477941072376,
        "alt_km": 639.0657534436905,
        "timestamp": "2025-12-08T23:34:04.369638+00:00",
        "meta_object_name": "COSMOS 2251 DEB",
        "meta_object_id": "1993-036BPB",
        "meta_epoch": "2025-12-07T02:21:17.919648",
        "meta_mean_motion": 14.80155071,
        "meta_eccentricity": 0.00062314,
        "meta_inclination": 74.021,
        "meta_ra_of_asc_node": 109.1315,
        "meta_arg_of_pericenter": 130.3601,
        "meta_mean_anomaly": 229.812,
        "meta_ephemeris_type": 0,
        "meta_classification_type": "U",
        "meta_norad_cat_id": 37546,
        "meta_element_set_no": 999,
        "meta_rev_at_epoch": 65804,
        "meta_bstar": 0.0044829614,
        "meta_mean_motion_dot": 0.00034195,
        "meta_mean_motion_ddot": 0,
        "tle_line1": "1 37546U 93036BPB 25341.09812407  .00034195  00000+0  44830-2 0  9994",
        "tle_line2": "2 37546  74.0210 109.1315 0006231 130.3601 229.8120 14.80155071658046"
      },
      "geometry": {
        "type": "Point",
        "coordinates": [
          89.82477941072376,
          -43.17047181420325
        ]
      }
    },
    {
      "type": "Feature",
      "properties": {
        "norad_id": 37959,
        "name": "COSMOS 2251 DEB",
        "group": "cosmos-2251-debris",
        "lat": 73.98017360763617,
        "lon": 151.0708192427491,
        "alt_km": 711.3492750332807,
        "timestamp": "2025-12-08T23:34:04.369649+00:00",
        "meta_object_name": "COSMOS 2251 DEB",
        "meta_object_id": "1993-036BPJ",
        "meta_epoch": "2025-12-08T11:42:12.655872",
        "meta_mean_motion": 14.58100626,
        "meta_eccentricity": 0.0058129,
        "meta_inclination": 74.0115,
        "meta_ra_of_asc_node": 65.047,
        "meta_arg_of_pericenter": 208.7745,
        "meta_mean_anomaly": 167.1187,
        "meta_ephemeris_type": 0,
        "meta_classification_type": "U",
        "meta_norad_cat_id": 37959,
        "meta_element_set_no": 999,
        "meta_rev_at_epoch": 80065,
        "meta_bstar": 0.0012254264,
        "meta_mean_motion_dot": 5.749e-05,
        "meta_mean_motion_ddot": 0,
        "tle_line1": "1 37959U 93036BPJ 25342.48764648  .00005749  00000+0  12254-2 0  9997",
        "tle_line2": "2 37959  74.0115  65.0470 0058129 208.7745 167.1187 14.58100626800656"
      },
      "geometry": {
        "type": "Point",
        "coordinates": [
          151.0708192427491,
          73.98017360763617
        ]
      }
    }
  ]
}